[{"OBJECT_NAME":"GEESAT-3 01","OBJECT_ID":"2024-159A","EPOCH":"2026-03-09T22:55:44.243616","MEAN_MOTION":14.83820553,"ECCENTRICITY":0.00031646,"INCLINATION":49.9988,"RA_OF_ASC_NODE":183.2096,"ARG_OF_PERICENTER":229.1953,"MEAN_ANOMALY":130.8711,"EPHEMERIS_TYPE":0,"CLASSIFICATION_TYPE":"U","NORAD_CAT_ID":61011,"ELEMENT_SET_NO":999,"REV_AT_EPOCH":8194,"BSTAR":0.00046731486,"MEAN_MOTION_DOT":3.69e-5,"MEAN_MOTION_DDOT":0},{"OBJECT_NAME":"NOAA 16 DEB","OBJECT_ID":"2000-055QM","EPOCH":"2026-02-13T20:17:25.525248","MEAN_MOTION":14.8112506,"ECCENTRICITY":0.0019072,"INCLINATION":98.7098,"RA_OF_ASC_NODE":187.8427,"ARG_OF_PERICENTER":4.6207,"MEAN_ANOMALY":355.5176,"EPHEMERIS_TYPE":0,"CLASSIFICATION_TYPE":"U","NORAD_CAT_ID":42345,"ELEMENT_SET_NO":999,"REV_AT_EPOCH":51220,"BSTAR":0.00418518,"MEAN_MOTION_DOT":0.00032705,"MEAN_MOTION_DDOT":0}]
